[{"OBJECT_NAME":"IRIDIUM 114","OBJECT_ID":"2017-003G","EPOCH":"2026-03-09T17:25:34.142304","MEAN_MOTION":14.34217503,"ECCENTRICITY":0.00021341,"INCLINATION":86.3979,"RA_OF_ASC_NODE":130.0546,"ARG_OF_PERICENTER":90.4305,"MEAN_ANOMALY":269.7135,"EPHEMERIS_TYPE":0,"CLASSIFICATION_TYPE":"U","NORAD_CAT_ID":41923,"ELEMENT_SET_NO":999,"REV_AT_EPOCH":47899,"BSTAR":9.4657235e-5,"MEAN_MOTION_DOT":2.85e-6,"MEAN_MOTION_DDOT":0},{"OBJECT_NAME":"FENGYUN 1C DEB","OBJECT_ID":"1999-025BAF","EPOCH":"2026-03-09T13:44:12.836256","MEAN_MOTION":14.32019244,"ECCENTRICITY":0.0033731,"INCLINATION":98.5453,"RA_OF_ASC_NODE":289.0365,"ARG_OF_PERICENTER":58.2898,"MEAN_ANOMALY":302.1566,"EPHEMERIS_TYPE":0,"CLASSIFICATION_TYPE":"U","NORAD_CAT_ID":30941,"ELEMENT_SET_NO":999,"REV_AT_EPOCH":97868,"BSTAR":0.0018306,"MEAN_MOTION_DOT":4.904e-5,"MEAN_MOTION_DDOT":0}]
